[
  {
    "OBJECT_NAME": "STARLINK-1054",
    "OBJECT_ID": "19074AY",
    "EPOCH": "2025-11-12T05:29:03.843744",
    "MEAN_MOTION": 16.06220363,
    "ECCENTRICITY": 0.0006148,
    "INCLINATION": 53.0328,
    "RA_OF_ASC_NODE": 328.2965,
    "ARG_OF_PERICENTER": 32.1556,
    "MEAN_ANOMALY": 327.985,
    "EPHEMERIS_TYPE": 0,
    "CLASSIFICATION_TYPE": "U",
    "NORAD_CAT_ID": 44759,
    "ELEMENT_SET_NO": 999,
    "REV_AT_EPOCH": 32905,
    "BSTAR": 0.0016730999999999998,
    "MEAN_MOTION_DOT": 0.01257191,
    "MEAN_MOTION_DDOT": 0.0009406600000000001,
    "TLE_LINE1": "1 44759U 19074AY  25316.22851671  .01257191  94066-3  16731-2 0  9993",
    "TLE_LINE2": "2 44759  53.0328 328.2965 0006148  32.1556 327.9850 16.06220363329050",
    "COMMENT": "Grouped by shell and plane from TLE"
  }
]